[{"OBJECT_NAME":"YAOGAN-30 04C","OBJECT_ID":"2017-085C","EPOCH":"2026-03-09T23:40:14.590272","MEAN_MOTION":15.02217282,"ECCENTRICITY":0.00053586,"INCLINATION":34.9965,"RA_OF_ASC_NODE":34.9402,"ARG_OF_PERICENTER":340.2354,"MEAN_ANOMALY":19.8146,"EPHEMERIS_TYPE":0,"CLASSIFICATION_TYPE":"U","NORAD_CAT_ID":43083,"ELEMENT_SET_NO":999,"REV_AT_EPOCH":44782,"BSTAR":0.0003185703,"MEAN_MOTION_DOT":4.258e-5,"MEAN_MOTION_DDOT":0},{"OBJECT_NAME":"STARLINK-4364","OBJECT_ID":"2022-084AT","EPOCH":"2026-03-09T17:33:44.095968","MEAN_MOTION":15.05648984,"ECCENTRICITY":6.522e-5,"INCLINATION":97.6041,"RA_OF_ASC_NODE":131.2925,"ARG_OF_PERICENTER":81.7209,"MEAN_ANOMALY":278.4091,"EPHEMERIS_TYPE":0,"CLASSIFICATION_TYPE":"U","NORAD_CAT_ID":53230,"ELEMENT_SET_NO":999,"REV_AT_EPOCH":19939,"BSTAR":3.3856851e-5,"MEAN_MOTION_DOT":4.28e-6,"MEAN_MOTION_DDOT":0}]
